IRIDIUM 921 [-]         
1 24873U 97034E   23275.82671240  .00024803  00000+0  97085-3 0  9994
2 24873  86.3870  54.4380 0006324 140.5498 219.6209 15.25677185435916
IRIDIUM 26 [-]          
1 24903U 97043A   23275.35689602  .00000804  00000+0  27012-3 0  9995
2 24903  86.4022  12.3377 0002179  87.4923 272.6523 14.36017399367654
IRIDIUM 22 [-]          
1 24907U 97043E   23275.35347576  .00000787  00000+0  27005-3 0  9992
2 24907  86.4024  15.3686 0002208  93.4236 266.7212 14.34925205367272
DUMMY MASS 1 [-]        
1 24925U 97048A   23275.48305531  .00000925  00000+0  10311-3 0  9992
2 24925  86.3324  63.4622 0006609 176.0473 184.0804 14.85845373412721
DUMMY MASS 2 [-]        
1 24926U 97048B   23275.41053468  .00000911  00000+0  10204-3 0  9991
2 24926  86.3321  64.9943 0006927 189.6159 170.4934 14.85606436412509
IRIDIUM 29 [-]          
1 24944U 97051A   23275.08981342  .00000649  00000+0  21956-3 0  9993
2 24944  86.3971  45.4585 0002293  96.2579 263.8879 14.35385335363931
IRIDIUM 33 [-]          
1 24946U 97051C   23275.44021166  .00000633  00000+0  21943-3 0  9993
2 24946  86.3888  44.5891 0006478 326.2043  33.8739 14.34124901363334
IRIDIUM 28 [-]          
1 24948U 97051E   23275.82144665  .00000928  00000+0  31111-3 0  9992
2 24948  86.3982  43.0263 0001906  81.5640 278.5773 14.36313629364407
